NORAD_CAT_ID,OBJECT_NAME,OBJECT_TYPE,EPOCH,MEAN_MOTION,ECCENTRICITY,INCLINATION,RA_OF_ASC_NODE,ARG_OF_PERICENTER,MEAN_ANOMALY,BSTAR,MEAN_MOTION_DOT,MEAN_MOTION_DDOT,TLE_LINE0,TLE_LINE1,TLE_LINE2,SEMIMAJOR_AXIS,PERIOD,APOGEE,PERIGEE,DECAYED
52265.0,STARLINK-3740,PAYLOAD,2023-11-26 01:54:42,15.0887992,0.0001657,53.2179,255.8316,95.5292,264.5889,0.0010689,0.00016783,0.0,0 STARLINK-3740,1 52265U 22041E   23330.07965568  .00016783  00000-0  10689-2 0  9997,2 52265  53.2179 255.8316 0001657  95.5292 264.5889 15.08879920 89581,6917.758,95.435,540.77,538.477,0.0
52265.0,STARLINK-3740,PAYLOAD,2023-11-26 22:34:43,15.08834974,0.0001809,53.2176,251.9615,123.9911,236.1253,-0.00018295,-3.198e-05,0.0,0 STARLINK-3740,1 52265U 22041E   23330.94078261 -.00003198  00000-0 -18295-3 0  9998,2 52265  53.2176 251.9615 0001809 123.9911 236.1253 15.08834974 88499,6917.896,95.438,541.012,538.509,0.0
52265.0,STARLINK-3740,PAYLOAD,2023-11-27 01:45:30,15.08831162,0.0001761,53.2173,251.369,133.6401,226.4737,-0.0002443,-4.173e-05,0.0,0 STARLINK-3740,1 52265U 22041E   23331.07326412 -.00004173  00000-0 -24430-3 0  9999,2 52265  53.2173 251.3690 0001761 133.6401 226.4737 15.08831162 89735,6917.907,95.438,540.991,538.554,0.0
52265.0,STARLINK-3740,PAYLOAD,2023-11-27 22:25:31,15.08834288,0.0001041,53.2176,247.5,90.0905,270.0207,0.00023539,3.46e-05,0.0,0 STARLINK-3740,1 52265U 22041E   23331.93439214  .00003460  00000-0  23539-3 0  9994,2 52265  53.2176 247.5000 0001041  90.0905 270.0207 15.08834288 88644,6917.898,95.438,540.483,539.043,0.0
52265.0,STARLINK-3740,PAYLOAD,2023-11-28 00:00:54,15.08846637,0.0002293,53.218,247.2068,142.2397,217.8757,0.00049262,7.562e-05,0.0,0 STARLINK-3740,1 52265U 22041E   23332.00062833  .00007562  00000-0  49262-3 0  9990,2 52265  53.2180 247.2068 0002293 142.2397 217.8757 15.08846637 89871,6917.86,95.437,541.311,538.139,0.0
52265.0,STARLINK-3740,PAYLOAD,2023-11-28 04:47:03,15.08852283,0.0002095,53.2177,246.31,130.0417,230.0759,0.00059068,9.128e-05,0.0,0 STARLINK-3740,1 52265U 22041E   23332.19934688  .00009128  00000-0  59068-3 0  9991,2 52265  53.2177 246.3100 0002095 130.0417 230.0759 15.08852283 88683,6917.843,95.437,541.157,538.259,0.0
52265.0,STARLINK-3740,PAYLOAD,2023-11-28 23:51:41,15.08841266,0.0001596,53.2169,242.7463,123.0394,237.0752,0.00021958,3.208e-05,0.0,0 STARLINK-3740,1 52265U 22041E   23332.99422995  .00003208  00000-0  21958-3 0  9992,2 52265  53.2169 242.7463 0001596 123.0394 237.0752 15.08841266 90027,6917.877,95.437,540.846,538.637,0.0
52265.0,STARLINK-3740,PAYLOAD,2023-11-30 02:53:14,15.08848105,0.000148,53.217,237.6917,106.4145,253.701,0.00034493,5.207e-05,0.0,0 STARLINK-3740,1 52265U 22041E   23334.12031035  .00005207  00000-0  34493-3 0  9999,2 52265  53.2170 237.6917 0001480 106.4145 253.7010 15.08848105 90196,6917.856,95.437,540.744,538.697,0.0
52265.0,STARLINK-3740,PAYLOAD,2023-12-01 02:44:02,15.08843544,0.0001663,53.2171,233.2268,75.3819,284.7358,0.0003271,4.922e-05,0.0,0 STARLINK-3740,1 52265U 22041E   23335.11391820  .00004922  00000-0  32710-3 0  9993,2 52265  53.2171 233.2268 0001663  75.3819 284.7358 15.08843544 90341,6917.87,95.437,540.885,538.584,0.0
52265.0,STARLINK-3740,PAYLOAD,2023-12-01 21:48:39,15.08860345,0.0001626,53.2165,229.6596,78.7882,281.3293,0.0005861,9.057e-05,0.0,0 STARLINK-3740,1 52265U 22041E   23335.90879137  .00009057  00000-0  58610-3 0  9993,2 52265  53.2165 229.6596 0001626  78.7882 281.3293 15.08860345 89249,6917.818,95.436,540.808,538.558,0.0
52265.0,STARLINK-3740,PAYLOAD,2023-12-01 23:24:02,15.08862942,0.0002231,53.2168,229.3669,66.9534,293.1694,0.00083929,0.00013103,0.0,0 STARLINK-3740,1 52265U 22041E   23335.97503281  .00013103  00000-0  83929-3 0  9992,2 52265  53.2168 229.3669 0002231  66.9534 293.1694 15.08862942 90474,6917.81,95.436,541.219,538.132,0.0
52265.0,STARLINK-3740,PAYLOAD,2023-12-02 02:34:48,15.08890895,0.000169,53.2171,228.7666,113.4219,246.6951,0.0016406,0.00025955,0.0,0 STARLINK-3740,1 52265U 22041E   23336.10750204  .00025955  00000-0  16406-2 0  9990,2 52265  53.2171 228.7666 0001690 113.4219 246.6951 15.08890895 90493,6917.725,95.434,540.759,538.421,0.0
52265.0,STARLINK-3740,PAYLOAD,2023-12-02 20:04:03,15.08836068,0.0001688,53.2166,225.4978,98.229,261.8893,-0.00024718,-4.219e-05,0.0,0 STARLINK-3740,1 52265U 22041E   23336.83615242 -.00004219  00000-0 -24718-3 0  9990,2 52265  53.2166 225.4978 0001688  98.2290 261.8893 15.08836068 90602,6917.892,95.438,540.925,538.59,0.0
52265.0,STARLINK-3740,PAYLOAD,2023-12-02 21:39:26,15.08833309,0.0001602,53.2162,225.2013,103.9353,256.1818,-0.00029854,-5.035e-05,0.0,0 STARLINK-3740,1 52265U 22041E   23336.90239266 -.00005035  00000-0 -29854-3 0  9999,2 52265  53.2162 225.2013 0001602 103.9353 256.1818 15.08833309 89399,6917.901,95.438,540.874,538.658,0.0
52265.0,STARLINK-3740,PAYLOAD,2023-12-03 02:25:36,15.08830596,0.000145,53.2157,224.3092,94.9533,265.1625,-0.00018852,-3.286e-05,0.0,0 STARLINK-3740,1 52265U 22041E   23337.10111504 -.00003286  00000-0 -18852-3 0  9998,2 52265  53.2157 224.3092 0001450  94.9533 265.1625 15.08830596 89425,6917.909,95.438,540.777,538.771,0.0
52265.0,STARLINK-3740,PAYLOAD,2023-12-03 23:05:37,15.08834817,0.0001543,53.2157,220.4434,88.3563,271.7606,0.0001396,1.934e-05,0.0,0 STARLINK-3740,1 52265U 22041E   23337.96224234  .00001934  00000-0  13960-3 0  9998,2 52265  53.2157 220.4434 0001543  88.3563 271.7606 15.08834817 90777,6917.896,95.438,540.829,538.694,0.0
52265.0,STARLINK-3740,PAYLOAD,2023-12-05 02:07:10,15.08850694,0.000154,53.2158,215.3871,88.8478,271.2691,0.00039637,6.028e-05,0.0,0 STARLINK-3740,1 52265U 22041E   23339.08831887  .00006028  00000-0  39637-3 0  9999,2 52265  53.2158 215.3871 0001540  88.8478 271.2691 15.08850694 90942,6917.848,95.437,540.778,538.647,0.0
52265.0,STARLINK-3740,PAYLOAD,2023-12-06 22:37:59,15.08830766,0.0001485,53.2157,207.0614,86.7948,273.3214,-0.00010021,-1.882e-05,0.0,0 STARLINK-3740,1 52265U 22041E   23340.94304629 -.00001882  00000-0 -10021-3 0  9996,2 52265  53.2157 207.0614 0001485  86.7948 273.3214 15.08830766 90000,6917.909,95.438,540.801,538.746,0.0
52265.0,STARLINK-3740,PAYLOAD,2023-12-07 00:13:22,15.08829518,0.0001496,53.2156,206.764,84.1625,275.9537,-0.00011357,-2.094e-05,0.0,0 STARLINK-3740,1 52265U 22041E   23341.00928719 -.00002094  00000-0 -11357-3 0  9995,2 52265  53.2156 206.7640 0001496  84.1625 275.9537 15.08829518 91235,6917.912,95.438,540.812,538.743,0.0
52265.0,STARLINK-3740,PAYLOAD,2023-12-09 14:13:24,15.08845173,9.67e-05,53.2162,195.166,105.1629,254.947,8.0934e-05,1.001e-05,0.0,0 STARLINK-3740,1 52265U 22041E   23343.59264113  .00001001  00000-0  80934-4 0  9995,2 52265  53.2162 195.1660 0000967 105.1629 254.9470 15.08845173 90401,6917.865,95.437,540.399,539.061,0.0
52265.0,STARLINK-3740,PAYLOAD,2023-12-09 23:45:42,15.08848756,0.0001297,53.2152,193.385,78.9206,281.1932,0.00014448,2.013e-05,0.0,0 STARLINK-3740,1 52265U 22041E   23343.99007972  .00002013  00000-0  14448-3 0  9997,2 52265  53.2152 193.3850 0001297  78.9206 281.1932 15.08848756 90467,6917.854,95.437,540.616,538.821,0.0
52265.0,STARLINK-3740,PAYLOAD,2023-12-10 18:50:20,15.08847587,0.0001769,53.2145,189.8112,113.8044,246.3134,3.2983e-05,2.37e-06,0.0,0 STARLINK-3740,1 52265U 22041E   23344.78495991  .00000237  00000-0  32983-4 0  9998,2 52265  53.2145 189.8112 0001769 113.8044 246.3134 15.08847587 91800,6917.857,95.437,540.946,538.498,0.0
52265.0,STARLINK-3740,PAYLOAD,2023-12-10 20:25:43,15.08844833,0.0001494,53.216,189.5185,99.3068,260.8093,6.4615e-06,-1.85e-06,0.0,0 STARLINK-3740,1 52265U 22041E   23344.85120200 -.00000185  00000-0  64615-5 0  9995,2 52265  53.2160 189.5185 0001494  99.3068 260.8093 15.08844833 90594,6917.866,95.437,540.764,538.697,0.0
52265.0,STARLINK-3740,PAYLOAD,2023-12-11 20:16:30,15.08842053,0.0001513,53.2164,185.0586,103.9213,256.1947,-1.1919e-05,-4.78e-06,0.0,0 STARLINK-3740,1 52265U 22041E   23345.84480144 -.00000478  00000-0 -11919-4 0  9995,2 52265  53.2164 185.0586 0001513 103.9213 256.1947 15.08842053 91960,6917.874,95.437,540.786,538.692,0.0
52265.0,STARLINK-3740,PAYLOAD,2023-12-12 20:07:17,15.08839332,0.0001446,53.2164,180.5963,98.7397,261.3759,5.6593e-05,6.13e-06,0.0,0 STARLINK-3740,1 52265U 22041E   23346.83840157  .00000613  00000-0  56593-4 0  9995,2 52265  53.2164 180.5963 0001446  98.7397 261.3759 15.08839332 90894,6917.882,95.438,540.748,538.747,0.0
52265.0,STARLINK-3740,PAYLOAD,2023-12-13 04:04:14,15.08795538,0.0001257,53.2163,179.1104,99.404,260.7094,0.00066134,0.0001024,0.0,0 STARLINK-3740,1 52265U 22041E   23347.16961706  .00010240  00000-0  66134-3 0  9994,2 52265  53.2163 179.1104 0001257  99.4040 260.7094 15.08795538 92163,6918.016,95.44,540.751,539.012,0.0
52265.0,STARLINK-3740,PAYLOAD,2023-12-13 19:58:05,15.0884082,0.0001382,53.2166,176.137,98.1017,262.0132,7.905e-06,-1.62e-06,0.0,0 STARLINK-3740,1 52265U 22041E   23347.83200369 -.00000162  00000-0  79050-5 0  9995,2 52265  53.2166 176.1370 0001382  98.1017 262.0132 15.08840820 92261,6917.878,95.438,540.699,538.787,0.0
52265.0,STARLINK-3740,PAYLOAD,2023-12-14 19:48:52,15.08837578,0.0001381,53.2163,171.6762,92.1811,267.9339,2.4748e-05,1.06e-06,0.0,0 STARLINK-3740,1 52265U 22041E   23348.82560770  .00000106  00000-0  24748-4 0  9990,2 52265  53.2163 171.6762 0001381  92.1811 267.9339 15.08837578 91198,6917.888,95.438,540.708,538.797,0.0
52265.0,STARLINK-3740,PAYLOAD,2023-12-15 19:39:39,15.08836638,0.0001376,53.2161,167.2172,87.528,272.587,5.0692e-05,5.19e-06,0.0,0 STARLINK-3740,1 52265U 22041E   23349.81921026  .00000519  00000-0  50692-4 0  9990,2 52265  53.2161 167.2172 0001376  87.5280 272.5870 15.08836638 91349,6917.891,95.438,540.708,538.804,0.0
52265.0,STARLINK-3740,PAYLOAD,2023-12-16 19:30:26,15.08841736,0.0001473,53.2165,162.7556,78.5829,281.5328,0.00010795,1.431e-05,0.0,0 STARLINK-3740,1 52265U 22041E   23350.81280825  .00001431  00000-0  10795-3 0  9990,2 52265  53.2165 162.7556 0001473  78.5829 281.5328 15.08841736 92711,6917.875,95.437,540.759,538.721,0.0
